[{"OBJECT_NAME":"ONEWEB-0389","OBJECT_ID":"2021-132A","EPOCH":"2026-03-09T20:58:52.511232","MEAN_MOTION":13.17649894,"ECCENTRICITY":0.00016657,"INCLINATION":87.9151,"RA_OF_ASC_NODE":25.5899,"ARG_OF_PERICENTER":69.0687,"MEAN_ANOMALY":291.0622,"EPHEMERIS_TYPE":0,"CLASSIFICATION_TYPE":"U","NORAD_CAT_ID":50469,"ELEMENT_SET_NO":999,"REV_AT_EPOCH":20500,"BSTAR":0.00027495646,"MEAN_MOTION_DOT":1.2e-6,"MEAN_MOTION_DDOT":0},{"OBJECT_NAME":"DELTA 1 DEB","OBJECT_ID":"1973-086FG","EPOCH":"2026-03-09T07:18:23.512320","MEAN_MOTION":12.89577573,"ECCENTRICITY":0.01445706,"INCLINATION":102.3299,"RA_OF_ASC_NODE":13.7341,"ARG_OF_PERICENTER":5.3333,"MEAN_ANOMALY":150.2944,"EPHEMERIS_TYPE":0,"CLASSIFICATION_TYPE":"U","NORAD_CAT_ID":7198,"ELEMENT_SET_NO":999,"REV_AT_EPOCH":44584,"BSTAR":0.0040409517,"MEAN_MOTION_DOT":1.046e-5,"MEAN_MOTION_DDOT":0}]
